[{"OBJECT_NAME":"SHIJIAN-6 04B (SJ-6 04B)","OBJECT_ID":"2010-051B","EPOCH":"2026-03-09T23:26:29.179104","MEAN_MOTION":14.99121194,"ECCENTRICITY":0.00088219,"INCLINATION":97.8755,"RA_OF_ASC_NODE":73.3683,"ARG_OF_PERICENTER":293.8275,"MEAN_ANOMALY":66.2023,"EPHEMERIS_TYPE":0,"CLASSIFICATION_TYPE":"U","NORAD_CAT_ID":37180,"ELEMENT_SET_NO":999,"REV_AT_EPOCH":84081,"BSTAR":0.00010220627,"MEAN_MOTION_DOT":1.181e-5,"MEAN_MOTION_DDOT":0},{"OBJECT_NAME":"STARLINK-5328","OBJECT_ID":"2023-021AF","EPOCH":"2026-03-09T15:26:48.457824","MEAN_MOTION":14.98333056,"ECCENTRICITY":0.0003409,"INCLINATION":70.0005,"RA_OF_ASC_NODE":164.7339,"ARG_OF_PERICENTER":271.1096,"MEAN_ANOMALY":88.9673,"EPHEMERIS_TYPE":0,"CLASSIFICATION_TYPE":"U","NORAD_CAT_ID":55657,"ELEMENT_SET_NO":999,"REV_AT_EPOCH":16927,"BSTAR":-2.847e-5,"MEAN_MOTION_DOT":-4.33e-6,"MEAN_MOTION_DDOT":0}]
